     2              NAVIGATION DATA                         RINEX VERSION / TYPE
CCRINEXN V1.6.0 UX  CDDIS               10-NOV-17 17:31     PGM / RUN BY / DATE 
IGS BROADCAST EPHEMERIS FILE                                COMMENT             
    0.1211D-07 -0.7451D-08 -0.1192D-06  0.5960D-07          ION ALPHA           
    0.9830D+05 -0.8192D+05 -0.1966D+06  0.4588D+06          ION BETA            
   -0.931322574615D-09-0.266453525910D-14   503808     1974 DELTA-UTC: A0,A1,T,W
    18                                                      LEAP SECONDS        
                                                            END OF HEADER       
15 17 11  9  4  0  0.0-0.357080716640D-03-0.113686837722D-12 0.000000000000D+00
    0.250000000000D+02 0.625000000000D-01 0.556380319594D-08-0.846707617662D+00
    0.162050127983D-06 0.988093763590D-02 0.644847750664D-05 0.515363410187D+04
    0.360000000000D+06 0.184401869774D-06 0.289598410529D+01 0.111758708954D-06
    0.928958324374D+00 0.234031250000D+03 0.629066177531D+00-0.857642845631D-08
   -0.171078554101D-09 0.100000000000D+01 0.197400000000D+04 0.000000000000D+00
    0.200000000000D+01 0.000000000000D+00-0.107102096081D-07 0.250000000000D+02
    0.352800000000D+06 0.000000000000D+00 0.000000000000D+00 0.000000000000D+00
16 17 11  9  4  0  0.0 0.365162268281D-04-0.227373675443D-12 0.000000000000D+00
    0.340000000000D+02 0.815000000000D+02 0.404445410496D-08 0.844586020718D+00
    0.444985926151D-05 0.936491508037D-02 0.546127557754D-05 0.515379586601D+04
    0.360000000000D+06 0.149011611938D-07-0.113611451568D+01 0.614672899246D-07
    0.988468523990D+00 0.285656250000D+03 0.457231091407D+00-0.814426748263D-08
    0.432160869590D-10 0.100000000000D+01 0.197400000000D+04 0.000000000000D+00
    0.200000000000D+01 0.000000000000D+00-0.107102096081D-07 0.340000000000D+02
    0.352830000000D+06 0.000000000000D+00 0.000000000000D+00 0.000000000000D+00
17 17 11  9  4  0  0.0-0.145793892443D-03 0.250111042988D-11 0.000000000000D+00
    0.640000000000D+02-0.539375000000D+02 0.426303481405D-08-0.201252279651D-01
   -0.278837978840D-05 0.121111342451D-01 0.429525971413D-05 0.515371255875D+04
    0.360000000000D+06-0.968575477600D-07-0.119899687606D+00 0.689178705216D-07
    0.981618029725D+00 0.309593750000D+03-0.183354504797D+01-0.836142000082D-08
   -0.168221298002D-09 0.100000000000D+01 0.197400000000D+04 0.000000000000D+00
    0.200000000000D+01 0.000000000000D+00-0.111758708954D-07 0.640000000000D+02
    0.352800000000D+06 0.000000000000D+00 0.000000000000D+00 0.000000000000D+00
18 17 11  9  4  0  0.0 0.632475595921D-03 0.454747350886D-12 0.000000000000D+00
    0.630000000000D+02-0.175000000000D+01 0.542915471752D-08 0.148758494226D+01
   -0.279396772385D-06 0.181531959679D-01 0.902265310287D-05 0.515363329887D+04
    0.360000000000D+06-0.262632966042D-06 0.187493141737D+01-0.359490513802D-06
    0.925754081739D+00 0.188093750000D+03-0.177300936912D+01-0.850964017496D-08
    0.466090843126D-09 0.100000000000D+01 0.197400000000D+04 0.000000000000D+00
    0.200000000000D+01 0.000000000000D+00-0.111758708954D-07 0.630000000000D+02
    0.352818000000D+06 0.400000000000D+01 0.000000000000D+00 0.000000000000D+00
19 17 11  9  4  0  0.0-0.476648565382D-03 0.216004991671D-11 0.000000000000D+00
    0.750000000000D+02-0.713750000000D+02 0.423624779700D-08 0.296287938894D+01
   -0.372901558876D-05 0.985227921046D-02 0.374577939510D-05 0.515368834686D+04
    0.360000000000D+06 0.614672899246D-07-0.724828421956D-01-0.214204192162D-06
    0.978998396950D+00 0.313812500000D+03 0.108997837167D+01-0.799961874520D-08
   -0.224652213499D-09 0.100000000000D+01 0.197400000000D+04 0.000000000000D+00
    0.200000000000D+01 0.000000000000D+00-0.153668224812D-07 0.750000000000D+02
    0.352800000000D+06 0.000000000000D+00 0.000000000000D+00 0.000000000000D+00
20 17 11  9  4  0  0.0 0.492214225233D-03 0.113686837722D-11 0.000000000000D+00
    0.630000000000D+02 0.837500000000D+01 0.528021981694D-08-0.104220447330D+01
    0.547617673874D-06 0.465184357017D-02 0.911764800549D-05 0.515375047684D+04
    0.360000000000D+06-0.540167093277D-07 0.182380401484D+01 0.968575477600D-07
    0.927142556306D+00 0.186500000000D+03 0.170736710114D+01-0.841356495585D-08
    0.516092946157D-09 0.100000000000D+01 0.197400000000D+04 0.000000000000D+00
    0.200000000000D+01 0.000000000000D+00-0.838190317154D-08 0.630000000000D+02
    0.353160000000D+06 0.000000000000D+00 0.000000000000D+00 0.000000000000D+00
21 17 11  9  4  0  0.0-0.463810283691D-03 0.341060513165D-11 0.000000000000D+00
    0.670000000000D+02-0.121875000000D+03 0.462983562599D-08 0.239757164759D+01
   -0.625662505627D-05 0.240532240132D-01 0.947341322899D-05 0.515357763290D+04
    0.360000000000D+06 0.299885869026D-06 0.835041673992D+00-0.108033418655D-06
    0.941505565006D+00 0.180156250000D+03-0.162682559038D+01-0.770460673038D-08
   -0.492877683111D-10 0.100000000000D+01 0.197400000000D+04 0.000000000000D+00
    0.200000000000D+01 0.000000000000D+00-0.977888703346D-08 0.670000000000D+02
    0.352830000000D+06 0.000000000000D+00 0.000000000000D+00 0.000000000000D+00
22 17 11  9  4  0  0.0-0.182850286365D-03-0.127329258248D-10 0.000000000000D+00
    0.950000000000D+02-0.215625000000D+01 0.543522649110D-08-0.665077289973D+00
    0.000000000000D+00 0.714342051651D-02 0.872462987900D-05 0.515367469978D+04
    0.360000000000D+06-0.521540641785D-07 0.187448579789D+01 0.800937414169D-07
    0.923859822264D+00 0.193343750000D+03-0.165744506996D+01-0.852392645356D-08
    0.415374457052D-09 0.100000000000D+01 0.197400000000D+04 0.000000000000D+00
    0.200000000000D+01 0.000000000000D+00-0.176951289177D-07 0.950000000000D+02
    0.352830000000D+06 0.000000000000D+00 0.000000000000D+00 0.000000000000D+00
23 17 11  9  4  0  0.0-0.218582339585D-03-0.227373675443D-12 0.000000000000D+00
    0.280000000000D+02 0.921875000000D+01 0.512164177735D-08-0.138168253969D+01
    0.471249222755D-06 0.118626336334D-01 0.642985105515D-05 0.515364580154D+04
    0.360000000000D+06 0.257045030594D-06 0.296194003022D+01-0.279396772385D-07
    0.944258014651D+00 0.240843750000D+03-0.241463404736D+01-0.825034351948D-08
   -0.714315481765D-10 0.100000000000D+01 0.197400000000D+04 0.000000000000D+00
    0.200000000000D+01 0.000000000000D+00-0.204890966415D-07 0.280000000000D+02
    0.353640000000D+06 0.000000000000D+00 0.000000000000D+00 0.000000000000D+00
24 17 11  9  4  0  0.0-0.419886782765D-04-0.454747350886D-12 0.000000000000D+00
    0.280000000000D+02 0.555625000000D+02 0.485555951002D-08-0.190966781760D+01
    0.265613198280D-05 0.622869294602D-02 0.953301787376D-05 0.515366899109D+04
    0.360000000000D+06 0.931322574615D-07-0.229983736765D+01-0.912696123123D-07
    0.943782888117D+00 0.187156250000D+03 0.476148769736D+00-0.807283662141D-08
   -0.178221715164D-09 0.100000000000D+01 0.197400000000D+04 0.000000000000D+00
    0.200000000000D+01 0.000000000000D+00 0.279396772385D-08 0.280000000000D+02
    0.355650000000D+06 0.000000000000D+00 0.000000000000D+00 0.000000000000D+00
25 17 11  9  4  0  0.0-0.486487988383D-03-0.625277607469D-11 0.000000000000D+00
    0.250000000000D+02 0.987187500000D+02 0.421839008169D-08 0.240037042054D+01
    0.501237809658D-05 0.665220571682D-02 0.512227416038D-05 0.515373466682D+04
    0.360000000000D+06-0.260770320892D-07-0.121234325179D+01-0.145286321640D-06
    0.975784333746D+00 0.287906250000D+03 0.811192362766D+00-0.803533506399D-08
    0.202508440572D-09 0.100000000000D+01 0.197400000000D+04 0.000000000000D+00
    0.200000000000D+01 0.000000000000D+00 0.558793544769D-08 0.250000000000D+02
    0.352830000000D+06 0.000000000000D+00 0.000000000000D+00 0.000000000000D+00
26 17 11  9  4  0  0.0-0.368813984096D-03 0.134150468512D-10 0.000000000000D+00
    0.260000000000D+02 0.905937500000D+02 0.472233940840D-08 0.191306330167D+01
    0.484287738800D-05 0.218045455404D-02 0.567920506000D-05 0.515356598091D+04
    0.360000000000D+06 0.800937414169D-07-0.123071750871D+01 0.614672899246D-07
    0.957448406735D+00 0.266437500000D+03-0.883483818704D-01-0.838963476468D-08
    0.142863096353D-09 0.100000000000D+01 0.197400000000D+04 0.000000000000D+00
    0.200000000000D+01 0.000000000000D+00 0.745058059692D-08 0.260000000000D+02
    0.352830000000D+06 0.000000000000D+00 0.000000000000D+00 0.000000000000D+00
27 17 11  9  4  0  0.0 0.345872249454D-03 0.375166564481D-11 0.000000000000D+00
    0.690000000000D+02-0.516250000000D+02 0.440946923419D-08 0.402661150053D-01
   -0.279769301414D-05 0.503211165778D-02 0.314414501190D-05 0.515367686462D+04
    0.360000000000D+06-0.558793544769D-08-0.172795509398D+00 0.931322574615D-07
    0.976433570938D+00 0.324687500000D+03 0.373421430433D+00-0.835999092175D-08
   -0.190722229676D-09 0.100000000000D+01 0.197400000000D+04 0.000000000000D+00
    0.280000000000D+01 0.000000000000D+00 0.186264514923D-08 0.690000000000D+02
    0.352830000000D+06 0.000000000000D+00 0.000000000000D+00 0.000000000000D+00
28 17 11  9  4  0  0.0 0.661002472043D-03 0.329691829393D-11 0.000000000000D+00
    0.870000000000D+02 0.578437500000D+02 0.414231540121D-08 0.898951049674D+00
    0.288709998131D-05 0.199961394537D-01 0.555068254471D-05 0.515366622925D+04
    0.360000000000D+06-0.344589352608D-06-0.113170957718D+01-0.154599547386D-06
    0.987298354836D+00 0.292406250000D+03-0.155460830292D+01-0.834606193269D-08
    0.792890169915D-10 0.100000000000D+01 0.197400000000D+04 0.000000000000D+00
    0.280000000000D+01 0.000000000000D+00-0.111758708954D-07 0.870000000000D+02
    0.356928000000D+06 0.400000000000D+01 0.000000000000D+00 0.000000000000D+00
